TRANSIT 16 [?]          
1 02807U 67048A   22308.50590208  .00000130  00000+0  18678-3 0  9992
2 02807  89.6638  31.6549 0021515 151.5416 218.4335 13.50336423729671
TRANSIT 17 [?]          
1 02965U 67092A   22308.48010678  .00000154  00000+0  21280-3 0  9990
2 02965  89.2301 112.6137 0046025 289.8758  90.3312 13.53047702717579
TRANSIT 18 [?]          
1 03133U 68012A   22308.68241817  .00000143  00000+0  20294-3 0  9996
2 03133  90.0055 271.6458 0073577 214.0052 321.2454 13.51174169416029
NNSS 19 [?]             
1 04507U 70067A   22308.55663878  .00000193  00000+0  26101-3 0  9994
2 04507  89.9322 238.2780 0172169 339.1477  20.2708 13.50855762569079
NNSS O-20 [?]           
1 06909U 73081A   22308.86020801  .00000201  00000+0  19797-3 0  9991
2 06909  89.8170 274.7680 0154431 236.1138 122.5254 13.70714206648241
TRANSAT [?]             
1 10457U 77106A   22308.73696903  .00000109  00000+0  15796-3 0  9996
2 10457  89.6713 117.9803 0023889 219.5266 152.6169 13.48694350214575
NOVA I [?]              
1 12458U 81044A   22308.72992429  .00000067  00000+0  13849-3 0  9996
2 12458  89.8802 106.1203 0014280 357.9899  13.4963 13.23079111  1909
NOVA 3 [?]              
1 15362U 84110A   22308.41871819  .00000037  00000+0  68317-4 0  9993
2 15362  90.1038  68.2905 0031067 213.8380 213.8251 13.22845649837017
OSCAR 30 [?]            
1 15935U 85066A   22308.40087894  .00000087  00000+0  14002-3 0  9997
2 15935  90.1792  80.3309 0169897  44.2043  15.2741 13.35772692813088
OSCAR 24 [?]            
1 15936U 85066B   22308.63101053  .00000079  00000+0  12645-3 0  9999
2 15936  90.1772  72.2621 0170531  49.3229 323.9334 13.35632182815036
POLAR BEAR [?]          
1 17070U 86088A   22308.54384331  .00000134  00000+0  12902-3 0  9995
2 17070  89.5741 231.2168 0037516 303.2428 230.8478 13.74889673804198
OSCAR 27 [?]            
1 18361U 87080A   22308.79232514  .00000125  00000+0  19412-3 0  9997
2 18361  90.3409  38.9062 0103103 230.9660 128.2277 13.44582715723177
OSCAR 29 [?]            
1 18362U 87080B   22308.28637341  .00000110  00000+0  17167-3 0  9998
2 18362  90.3422  39.2302 0104267 253.3168 165.8871 13.44170289722689
OSCAR 23 [?]            
1 19070U 88033A   22308.83999878  .00000089  00000+0  16007-3 0  9998
2 19070  90.3267 341.2742 0191863  93.4299  78.2250 13.27536325672076
OSCAR 32 [?]            
1 19071U 88033B   22308.11124779  .00000100  00000+0  18083-3 0  9990
2 19071  90.3270 341.3396 0190101  83.3922 331.2581 13.27715969672085
NOVA 11 [?]             
1 19223U 88052A   22308.62987031  .00000109  00000+0  23923-3 0  9992
2 19223  89.9758  80.5048 0028976 258.3378 122.2400 13.22756404659542
OSCAR 25 [?]            
1 19419U 88074A   22308.47783909  .00000126  00000+0  20386-3 0  9993
2 19419  90.0115  17.9865 0094754 240.9852 130.2003 13.42311876674492
OSCAR 31 [?]            
1 19420U 88074B   22308.49062757  .00000115  00000+0  18492-3 0  9991
2 19420  90.0127  18.1773 0093069 234.9998 134.7947 13.42321352674609
